[{"col1":"1 13601U 23001EAE 25164.60109954  .00030938  00000+0  12818-2 0  9996"},{"col1":"2 13601 145.0000 150.0000 0000001 000.0000 150.0000 03.06943000000000"},{"col1":"687.00000"},{"col1":"8500.00000"},{"col1":"0"}]
